{"type": "FeatureCollection", "features": [ {"type": "Feature", "properties": {"norad_id": 66825, "name": "STARLINK-35476", "group": "last-30-days", "lat": -60.70543545648103, "lon": 159.27516782935308, "alt_km": 330.92149767344654, "timestamp": "2025-12-12T09:49:07.482870+00:00", "meta": {"OBJECT_NAME": "STARLINK-35476", "OBJECT_ID": "2025-280E", "EPOCH": "2025-12-12T04:00:01.998720", "MEAN_MOTION": 15.82249425, "ECCENTRICITY": 0.0003937, "INCLINATION": 69.9927, "RA_OF_ASC_NODE": 200.47, "ARG_OF_PERICENTER": 275.0634, "MEAN_ANOMALY": 76.7742, "EPHEMERIS_TYPE": 0, "CLASSIFICATION_TYPE": "U", "NORAD_CAT_ID": 66825, "ELEMENT_SET_NO": 999, "REV_AT_EPOCH": 265, "BSTAR": -0.0095474, "MEAN_MOTION_DOT": -0.01710156, "MEAN_MOTION_DDOT": 0}, "tle": {"line1": "1 66825U 25280E   25346.16668980 -.01710156  00000+0 -95474-2 0  9991", "line2": "2 66825  69.9927 200.4700 0003937 275.0634  76.7742 15.82249425  2651"}}, "geometry": {"type": "Point", "coordinates": [159.27516782935308, -60.70543545648103]}}, {"type": "Feature", "properties": {"norad_id": 66826, "name": "STARLINK-35898", "group": "last-30-days", "lat": -59.400932107319605, "lon": 161.73775869424185, "alt_km": 330.9757018344317, "timestamp": "2025-12-12T09:49:07.482880+00:00", "meta": {"OBJECT_NAME": "STARLINK-35898", "OBJECT_ID": "2025-280F", "EPOCH": "2025-12-12T04:00:01.998720", "MEAN_MOTION": 15.8227386, "ECCENTRICITY": 0.0003831, "INCLINATION": 69.9927, "RA_OF_ASC_NODE": 200.4675, "ARG_OF_PERICENTER": 271.8535, "MEAN_ANOMALY": 81.7564, "EPHEMERIS_TYPE": 0, "CLASSIFICATION_TYPE": "U", "NORAD_CAT_ID": 66826, "ELEMENT_SET_NO": 999, "REV_AT_EPOCH": 280, "BSTAR": -0.0095372, "MEAN_MOTION_DOT": -0.01710148, "MEAN_MOTION_DDOT": 0}, "tle": {"line1": "1 66826U 25280F   25346.16668980 -.01710148  00000+0 -95372-2 0  9990", "line2": "2 66826  69.9927 200.4675 0003831 271.8535  81.7564 15.82273860  2805"}}, "geometry": {"type": "Point", "coordinates": [161.73775869424185, -59.400932107319605]}}, {"type": "Feature", "properties": {"norad_id": 66827, "name": "STARLINK-35959", "group": "last-30-days", "lat": -57.88528049991961, "lon": 164.28210539046438, "alt_km": 330.8186083718074, "timestamp": "2025-12-12T09:49:07.482891+00:00", "meta": {"OBJECT_NAME": "STARLINK-35959", "OBJECT_ID": "2025-280G", "EPOCH": "2025-12-12T04:00:01.998720", "MEAN_MOTION": 15.82289791, "ECCENTRICITY": 0.000396, "INCLINATION": 69.9924, "RA_OF_ASC_NODE": 200.4651, "ARG_OF_PERICENTER": 275.1834, "MEAN_ANOMALY": 80.4332, "EPHEMERIS_TYPE": 0, "CLASSIFICATION_TYPE": "U", "NORAD_CAT_ID": 66827, "ELEMENT_SET_NO": 999, "REV_AT_EPOCH": 280, "BSTAR": -0.009599, "MEAN_MOTION_DOT": -0.01720983, "MEAN_MOTION_DDOT": 0}, "tle": {"line1": "1 66827U 25280G   25346.16668980 -.01720983  00000+0 -95990-2 0  9995", "line2": "2 66827  69.9924 200.4651 0003960 275.1834  80.4332 15.82289791  2808"}}, "geometry": {"type": "Point", "coordinates": [164.28210539046438, -57.88528049991961]}}, {"type": "Feature", "properties": {"norad_id": 66828, "name": "STARLINK-35982", "group": "last-30-days", "lat": -54.580349251817054, "lon": 168.944718343725, "alt_km": 330.8555552378366, "timestamp": "2025-12-12T09:49:07.482901+00:00", "meta": {"OBJECT_NAME": "STARLINK-35982", "OBJECT_ID": "2025-280H", "EPOCH": "2025-12-12T04:00:01.998720", "MEAN_MOTION": 15.82301929, "ECCENTRICITY": 0.0003926, "INCLINATION": 69.9924, "RA_OF_ASC_NODE": 200.4602, "ARG_OF_PERICENTER": 274.601, "MEAN_ANOMALY": 85.2143, "EPHEMERIS_TYPE": 0, "CLASSIFICATION_TYPE": "U", "NORAD_CAT_ID": 66828, "ELEMENT_SET_NO": 999, "REV_AT_EPOCH": 280, "BSTAR": -0.0097036, "MEAN_MOTION_DOT": -0.01737931, "MEAN_MOTION_DDOT": 0}, "tle": {"line1": "1 66828U 25280H   25346.16668980 -.01737931  00000+0 -97036-2 0  9990", "line2": "2 66828  69.9924 200.4602 0003926 274.6010  85.2143 15.82301929  2808"}}, "geometry": {"type": "Point", "coordinates": [168.944718343725, -54.580349251817054]}}, {"type": "Feature", "properties": {"norad_id": 66829, "name": "STARLINK-36084", "group": "last-30-days", "lat": -56.258930723547934, "lon": 166.70810495714818, "alt_km": 330.84754124758456, "timestamp": "2025-12-12T09:49:07.482915+00:00", "meta": {"OBJECT_NAME": "STARLINK-36084", "OBJECT_ID": "2025-280J", "EPOCH": "2025-12-12T04:00:01.998720", "MEAN_MOTION": 15.82295583, "ECCENTRICITY": 0.0003882, "INCLINATION": 69.9924, "RA_OF_ASC_NODE": 200.4625, "ARG_OF_PERICENTER": 276.4618, "MEAN_ANOMALY": 81.2503, "EPHEMERIS_TYPE": 0, "CLASSIFICATION_TYPE": "U", "NORAD_CAT_ID": 66829, "ELEMENT_SET_NO": 999, "REV_AT_EPOCH": 264, "BSTAR": -0.0096463, "MEAN_MOTION_DOT": -0.01728585, "MEAN_MOTION_DDOT": 0}, "tle": {"line1": "1 66829U 25280J   25346.16668980 -.01728585  00000+0 -96463-2 0  9999", "line2": "2 66829  69.9924 200.4625 0003882 276.4618  81.2503 15.82295583  2645"}}, "geometry": {"type": "Point", "coordinates": [166.70810495714818, -56.258930723547934]}}, {"type": "Feature", "properties": {"norad_id": 66830, "name": "STARLINK-35881", "group": "last-30-days", "lat": -53.15675369900197, "lon": 170.6640996044395, "alt_km": 330.7589075297874, "timestamp": "2025-12-12T09:49:07.482925+00:00", "meta": {"OBJECT_NAME": "STARLINK-35881", "OBJECT_ID": "2025-280K", "EPOCH": "2025-12-12T04:00:01.998720", "MEAN_MOTION": 15.82327583, "ECCENTRICITY": 0.0003825, "INCLINATION": 69.992, "RA_OF_ASC_NODE": 200.4575, "ARG_OF_PERICENTER": 278.7646, "MEAN_ANOMALY": 82.7813, "EPHEMERIS_TYPE": 0, "CLASSIFICATION_TYPE": "U", "NORAD_CAT_ID": 66830, "ELEMENT_SET_NO": 999, "REV_AT_EPOCH": 280, "BSTAR": -0.0096649, "MEAN_MOTION_DOT": -0.01733641, "MEAN_MOTION_DDOT": 0}, "tle": {"line1": "1 66830U 25280K   25346.16668980 -.01733641  00000+0 -96649-2 0  9996", "line2": "2 66830  69.9920 200.4575 0003825 278.7646  82.7813 15.82327583  2804"}}, "geometry": {"type": "Point", "coordinates": [170.6640996044395, -53.15675369900197]}}, {"type": "Feature", "properties": {"norad_id": 66831, "name": "STARLINK-35788", "group": "last-30-days", "lat": -51.68034971167571, "lon": 172.30653782267055, "alt_km": 330.7058001705518, "timestamp": "2025-12-12T09:49:07.482935+00:00", "meta": {"OBJECT_NAME": "STARLINK-35788", "OBJECT_ID": "2025-280L", "EPOCH": "2025-12-12T04:00:01.998720", "MEAN_MOTION": 15.82359169, "ECCENTRICITY": 0.0003935, "INCLINATION": 69.9926, "RA_OF_ASC_NODE": 200.456, "ARG_OF_PERICENTER": 274.2177, "MEAN_ANOMALY": 89.0855, "EPHEMERIS_TYPE": 0, "CLASSIFICATION_TYPE": "U", "NORAD_CAT_ID": 66831, "ELEMENT_SET_NO": 999, "REV_AT_EPOCH": 280, "BSTAR": -0.0096962, "MEAN_MOTION_DOT": -0.01740832, "MEAN_MOTION_DDOT": 0}, "tle": {"line1": "1 66831U 25280L   25346.16668980 -.01740832  00000+0 -96962-2 0  9995", "line2": "2 66831  69.9926 200.4560 0003935 274.2177  89.0855 15.82359169  2808"}}, "geometry": {"type": "Point", "coordinates": [172.30653782267055, -51.68034971167571]}}, {"type": "Feature", "properties": {"norad_id": 66832, "name": "STARLINK-35768", "group": "last-30-days", "lat": -50.21291365438272, "lon": 173.81163605893002, "alt_km": 330.62163160386444, "timestamp": "2025-12-12T09:49:07.482945+00:00", "meta": {"OBJECT_NAME": "STARLINK-35768", "OBJECT_ID": "2025-280M", "EPOCH": "2025-12-12T04:00:01.998720", "MEAN_MOTION": 15.82366339, "ECCENTRICITY": 0.0003853, "INCLINATION": 69.9922, "RA_OF_ASC_NODE": 200.4534, "ARG_OF_PERICENTER": 278.2104, "MEAN_ANOMALY": 86.8363, "EPHEMERIS_TYPE": 0, "CLASSIFICATION_TYPE": "U", "NORAD_CAT_ID": 66832, "ELEMENT_SET_NO": 999, "REV_AT_EPOCH": 280, "BSTAR": -0.0096117, "MEAN_MOTION_DOT": -0.01728176, "MEAN_MOTION_DDOT": 0}, "tle": {"line1": "1 66832U 25280M   25346.16668980 -.01728176  00000+0 -96117-2 0  9995", "line2": "2 66832  69.9922 200.4534 0003853 278.2104  86.8363 15.82366339  2805"}}, "geometry": {"type": "Point", "coordinates": [173.81163605893002, -50.21291365438272]}}, {"type": "Feature", "properties": {"norad_id": 66833, "name": "STARLINK-35858", "group": "last-30-days", "lat": -48.40603981384017, "lon": 175.52094977030626, "alt_km": 330.6000340070659, "timestamp": "2025-12-12T09:49:07.482957+00:00", "meta": {"OBJECT_NAME": "STARLINK-35858", "OBJECT_ID": "2025-280N", "EPOCH": "2025-12-12T04:00:01.998720", "MEAN_MOTION": 15.82398293, "ECCENTRICITY": 0.0003961, "INCLINATION": 69.9924, "RA_OF_ASC_NODE": 200.4513, "ARG_OF_PERICENTER": 274.6566, "MEAN_ANOMALY": 92.4932, "EPHEMERIS_TYPE": 0, "CLASSIFICATION_TYPE": "U", "NORAD_CAT_ID": 66833, "ELEMENT_SET_NO": 999, "REV_AT_EPOCH": 280, "BSTAR": -0.0097895, "MEAN_MOTION_DOT": -0.01758043, "MEAN_MOTION_DDOT": 0}, "tle": {"line1": "1 66833U 25280N   25346.16668980 -.01758043  00000+0 -97895-2 0  9996", "line2": "2 66833  69.9924 200.4513 0003961 274.6566  92.4932 15.82398293  2806"}}, "geometry": {"type": "Point", "coordinates": [175.52094977030626, -48.40603981384017]}}, {"type": "Feature", "properties": {"norad_id": 66834, "name": "STARLINK-35840", "group": "last-30-days", "lat": -46.86253305183037, "lon": 176.86947727862793, "alt_km": 330.6025449900317, "timestamp": "2025-12-12T09:49:07.482967+00:00", "meta": {"OBJECT_NAME": "STARLINK-35840", "OBJECT_ID": "2025-280P", "EPOCH": "2025-12-12T04:00:01.998720", "MEAN_MOTION": 15.82426255, "ECCENTRICITY": 0.0003957, "INCLINATION": 69.9921, "RA_OF_ASC_NODE": 200.4486, "ARG_OF_PERICENTER": 271.8497, "MEAN_ANOMALY": 97.0685, "EPHEMERIS_TYPE": 0, "CLASSIFICATION_TYPE": "U", "NORAD_CAT_ID": 66834, "ELEMENT_SET_NO": 999, "REV_AT_EPOCH": 280, "BSTAR": -0.0097933, "MEAN_MOTION_DOT": -0.01760609, "MEAN_MOTION_DDOT": 0}, "tle": {"line1": "1 66834U 25280P   25346.16668980 -.01760609  00000+0 -97933-2 0  9991", "line2": "2 66834  69.9921 200.4486 0003957 271.8497  97.0685 15.82426255  2806"}}, "geometry": {"type": "Point", "coordinates": [176.86947727862793, -46.86253305183037]}}]}